KUIPER-00027            
1 63740U 25088S   25229.91670139 -.00809560  00000+0 -34415-1 0  9996
2 63740  51.8822 282.2852 0002228 186.1728  68.1676 15.25168609  4825
KUIPER-00028            
1 63741U 25088T   25229.91670139  .00006548  00000+0  25881-3 0  9999
2 63741  51.8766 281.7758 0002918 119.8105 349.9514 15.26686417  4880
KUIPER-00029            
1 63742U 25088U   25229.91670139  .00005219  00000+0  17294-3 0  9993
2 63742  51.8722 282.1486 0003237 135.8221 159.1283 15.32954784  5212
KUIPER-00030            
1 63743U 25088V   25229.91670139 -.00035954  00000+0 -41218-2 0  9997
2 63743  51.8974 291.6654 0015996 121.5129 250.5713 14.85369292  5886
KUIPER-00031            
1 63744U 25088W   25229.91670139  .00003389  00000+0  17249-3 0  9991
2 63744  51.8740 282.8420 0003704 124.2318 218.4900 15.19497723  4761
KUIPER-00032            
1 63745U 25088X   25229.88160624  .00012390  00000+0  44297-3 0  9996
2 63745  51.8737 283.2253 0004784 105.3002 254.8511 15.29176898 18288
KUIPER-00033            
1 63746U 25088Y   25229.48357468  .00003519  00000+0  49039-3 0  9999
2 63746  51.8998 309.5905 0002918 214.6535 145.4238 14.79934509 17360
KUIPER-00034            
1 63747U 25088Z   25229.85829274  .00014510  00000+0  39477-3 0  9998
2 63747  51.8709 281.6425 0000817  84.4071 275.7009 15.37761240 17461
